ZORKIY-2M-VPE           
1 67252U 25313E   26017.93288029  .00008856  00000+0  39367-3 0  9990
2 67252  97.4113  95.0876 0011362 147.2796 212.9146 15.21687383  3106
AIST-2T 1               
1 67253U 25313F   26017.95334838  .00048794  00000+0  48791-3 0  9999
2 67253  97.1032  95.3071 0010616 164.9026 195.2554 15.65384372  3170
AIST-2T 2               
1 67254U 25313G   26017.95488162  .00044948  00000+0  45704-3 0  9998
2 67254  97.1031  95.3051 0010154 167.0561 193.0962 15.64984135  3163
2025-313H               
1 67255U 25313H   26017.92716924  .00002449  00000+0  17416-3 0  9995
2 67255  97.3093  94.2441 0091471 126.2010 234.7718 15.02180973  3063
SITRO-AIS-57            
1 67256U 25313J   26017.95663736  .00010552  00000+0  49196-3 0  9995
2 67256  97.4104  95.0511 0017171 165.4181 194.7553 15.19925237  3109
SITRO-AIS-59            
1 67257U 25313K   26017.95617622  .00010559  00000+0  49196-3 0  9996
2 67257  97.4110  95.0533 0016901 167.4265 192.7395 15.19950534  3106
SITRO-AIS-58            
1 67258U 25313L   26017.95574411  .00010501  00000+0  48872-3 0  9992
2 67258  97.4106  95.0522 0016845 166.7172 193.4510 15.19992759  3108
2025-313M               
1 67259U 25313M   26017.95250158  .00013464  00000+0  62019-3 0  9992
2 67259  97.4150  95.0792 0016034 165.3781 194.7921 15.20296677  3106
SITRO-AIS-60            
1 67260U 25313N   26017.95412399  .00008157  00000+0  37970-3 0  9992
2 67260  97.4115  95.0568 0016242 166.8836 193.2825 15.20070785  3105
2025-313P               
1 67261U 25313P   26017.95082805  .00017464  00000+0  79818-3 0  9996
2 67261  97.4151  95.0819 0015798 165.7125 194.4561 15.20509576  3104
2025-313Q               
1 67262U 25313Q   26017.95242629  .00011821  00000+0  54547-3 0  9992
2 67262  97.4117  95.0597 0015897 167.5305 192.6326 15.20270820  3106
DCS-1                   
1 67263U 25313R   26017.95279569  .00010520  00000+0  48666-3 0  9996
2 67263  97.4129  95.0741 0015870 166.4272 193.7393 15.20212965  3105
