CCSDS_OMM_VERS = 2.0
CREATION_DATE  = 
ORIGINATOR     = 

OBJECT_NAME    = ZORKIY-2M-VPE
OBJECT_ID      = 2025-313E
CENTER_NAME    = EARTH
REF_FRAME      = TEME
TIME_SYSTEM    = UTC
MEAN_ELEMENT_THEORY = SGP/SGP4

EPOCH          = 2026-01-17T22:23:20.857056
MEAN_MOTION    = 15.21687383
ECCENTRICITY   = .00113624
INCLINATION    = 97.4113
RA_OF_ASC_NODE = 95.0876
ARG_OF_PERICENTER = 147.2796
MEAN_ANOMALY   = 212.9146

EPHEMERIS_TYPE = 0
CLASSIFICATION_TYPE = U
NORAD_CAT_ID   = 67252
ELEMENT_SET_NO = 999
REV_AT_EPOCH   = 310
BSTAR          = .39366991E-3
MEAN_MOTION_DOT = .8856E-4
MEAN_MOTION_DDOT = 0

CCSDS_OMM_VERS = 2.0
CREATION_DATE  = 
ORIGINATOR     = 

OBJECT_NAME    = AIST-2T 1
OBJECT_ID      = 2025-313F
CENTER_NAME    = EARTH
REF_FRAME      = TEME
TIME_SYSTEM    = UTC
MEAN_ELEMENT_THEORY = SGP/SGP4

EPOCH          = 2026-01-17T22:52:49.300032
MEAN_MOTION    = 15.65384372
ECCENTRICITY   = .00106165
INCLINATION    = 97.1032
RA_OF_ASC_NODE = 95.3071
ARG_OF_PERICENTER = 164.9026
MEAN_ANOMALY   = 195.2554

EPHEMERIS_TYPE = 0
CLASSIFICATION_TYPE = U
NORAD_CAT_ID   = 67253
ELEMENT_SET_NO = 999
REV_AT_EPOCH   = 317
BSTAR          = .48790817E-3
MEAN_MOTION_DOT = .48794E-3
MEAN_MOTION_DDOT = 0

CCSDS_OMM_VERS = 2.0
CREATION_DATE  = 
ORIGINATOR     = 

OBJECT_NAME    = AIST-2T 2
OBJECT_ID      = 2025-313G
CENTER_NAME    = EARTH
REF_FRAME      = TEME
TIME_SYSTEM    = UTC
MEAN_ELEMENT_THEORY = SGP/SGP4

EPOCH          = 2026-01-17T22:55:01.771968
MEAN_MOTION    = 15.64984135
ECCENTRICITY   = .00101548
INCLINATION    = 97.1031
RA_OF_ASC_NODE = 95.3051
ARG_OF_PERICENTER = 167.0561
MEAN_ANOMALY   = 193.0962

EPHEMERIS_TYPE = 0
CLASSIFICATION_TYPE = U
NORAD_CAT_ID   = 67254
ELEMENT_SET_NO = 999
REV_AT_EPOCH   = 316
BSTAR          = .45704429E-3
MEAN_MOTION_DOT = .44948E-3
MEAN_MOTION_DDOT = 0

CCSDS_OMM_VERS = 2.0
CREATION_DATE  = 
ORIGINATOR     = 

OBJECT_NAME    = 2025-313H
OBJECT_ID      = 2025-313H
CENTER_NAME    = EARTH
REF_FRAME      = TEME
TIME_SYSTEM    = UTC
MEAN_ELEMENT_THEORY = SGP/SGP4

EPOCH          = 2026-01-17T22:15:07.422336
MEAN_MOTION    = 15.02180973
ECCENTRICITY   = .00914714
INCLINATION    = 97.3093
RA_OF_ASC_NODE = 94.2441
ARG_OF_PERICENTER = 126.2010
MEAN_ANOMALY   = 234.7718

EPHEMERIS_TYPE = 0
CLASSIFICATION_TYPE = U
NORAD_CAT_ID   = 67255
ELEMENT_SET_NO = 999
REV_AT_EPOCH   = 306
BSTAR          = .17415855E-3
MEAN_MOTION_DOT = .2449E-4
MEAN_MOTION_DDOT = 0

CCSDS_OMM_VERS = 2.0
CREATION_DATE  = 
ORIGINATOR     = 

OBJECT_NAME    = SITRO-AIS-57
OBJECT_ID      = 2025-313J
CENTER_NAME    = EARTH
REF_FRAME      = TEME
TIME_SYSTEM    = UTC
MEAN_ELEMENT_THEORY = SGP/SGP4

EPOCH          = 2026-01-17T22:57:33.467904
MEAN_MOTION    = 15.19925237
ECCENTRICITY   = .00171713
INCLINATION    = 97.4104
RA_OF_ASC_NODE = 95.0511
ARG_OF_PERICENTER = 165.4181
MEAN_ANOMALY   = 194.7553

EPHEMERIS_TYPE = 0
CLASSIFICATION_TYPE = U
NORAD_CAT_ID   = 67256
ELEMENT_SET_NO = 999
REV_AT_EPOCH   = 310
BSTAR          = .49196225E-3
MEAN_MOTION_DOT = .10552E-3
MEAN_MOTION_DDOT = 0

CCSDS_OMM_VERS = 2.0
CREATION_DATE  = 
ORIGINATOR     = 

OBJECT_NAME    = SITRO-AIS-59
OBJECT_ID      = 2025-313K
CENTER_NAME    = EARTH
REF_FRAME      = TEME
TIME_SYSTEM    = UTC
MEAN_ELEMENT_THEORY = SGP/SGP4

EPOCH          = 2026-01-17T22:56:53.625408
MEAN_MOTION    = 15.19950534
ECCENTRICITY   = .00169012
INCLINATION    = 97.4110
RA_OF_ASC_NODE = 95.0533
ARG_OF_PERICENTER = 167.4265
MEAN_ANOMALY   = 192.7395

EPHEMERIS_TYPE = 0
CLASSIFICATION_TYPE = U
NORAD_CAT_ID   = 67257
ELEMENT_SET_NO = 999
REV_AT_EPOCH   = 310
BSTAR          = .49195968E-3
MEAN_MOTION_DOT = .10559E-3
MEAN_MOTION_DDOT = 0

CCSDS_OMM_VERS = 2.0
CREATION_DATE  = 
ORIGINATOR     = 

OBJECT_NAME    = SITRO-AIS-58
OBJECT_ID      = 2025-313L
CENTER_NAME    = EARTH
REF_FRAME      = TEME
TIME_SYSTEM    = UTC
MEAN_ELEMENT_THEORY = SGP/SGP4

EPOCH          = 2026-01-17T22:56:16.291104
MEAN_MOTION    = 15.19992759
ECCENTRICITY   = .00168457
INCLINATION    = 97.4106
RA_OF_ASC_NODE = 95.0522
ARG_OF_PERICENTER = 166.7172
MEAN_ANOMALY   = 193.4510

EPHEMERIS_TYPE = 0
CLASSIFICATION_TYPE = U
NORAD_CAT_ID   = 67258
ELEMENT_SET_NO = 999
REV_AT_EPOCH   = 310
BSTAR          = .48871738E-3
MEAN_MOTION_DOT = .10501E-3
MEAN_MOTION_DDOT = 0

CCSDS_OMM_VERS = 2.0
CREATION_DATE  = 
ORIGINATOR     = 

OBJECT_NAME    = 2025-313M
OBJECT_ID      = 2025-313M
CENTER_NAME    = EARTH
REF_FRAME      = TEME
TIME_SYSTEM    = UTC
MEAN_ELEMENT_THEORY = SGP/SGP4

EPOCH          = 2026-01-17T22:51:36.136512
MEAN_MOTION    = 15.20296677
ECCENTRICITY   = .00160348
INCLINATION    = 97.4150
RA_OF_ASC_NODE = 95.0792
ARG_OF_PERICENTER = 165.3781
MEAN_ANOMALY   = 194.7921

EPHEMERIS_TYPE = 0
CLASSIFICATION_TYPE = U
NORAD_CAT_ID   = 67259
ELEMENT_SET_NO = 999
REV_AT_EPOCH   = 310
BSTAR          = .62018783E-3
MEAN_MOTION_DOT = .13464E-3
MEAN_MOTION_DDOT = 0

CCSDS_OMM_VERS = 2.0
CREATION_DATE  = 
ORIGINATOR     = 

OBJECT_NAME    = SITRO-AIS-60
OBJECT_ID      = 2025-313N
CENTER_NAME    = EARTH
REF_FRAME      = TEME
TIME_SYSTEM    = UTC
MEAN_ELEMENT_THEORY = SGP/SGP4

EPOCH          = 2026-01-17T22:53:56.312736
MEAN_MOTION    = 15.20070785
ECCENTRICITY   = .00162422
INCLINATION    = 97.4115
RA_OF_ASC_NODE = 95.0568
ARG_OF_PERICENTER = 166.8836
MEAN_ANOMALY   = 193.2825

EPHEMERIS_TYPE = 0
CLASSIFICATION_TYPE = U
NORAD_CAT_ID   = 67260
ELEMENT_SET_NO = 999
REV_AT_EPOCH   = 310
BSTAR          = .3797044E-3
MEAN_MOTION_DOT = .8157E-4
MEAN_MOTION_DDOT = 0

CCSDS_OMM_VERS = 2.0
CREATION_DATE  = 
ORIGINATOR     = 

OBJECT_NAME    = 2025-313P
OBJECT_ID      = 2025-313P
CENTER_NAME    = EARTH
REF_FRAME      = TEME
TIME_SYSTEM    = UTC
MEAN_ELEMENT_THEORY = SGP/SGP4

EPOCH          = 2026-01-17T22:49:11.543520
MEAN_MOTION    = 15.20509576
ECCENTRICITY   = .00157986
INCLINATION    = 97.4151
RA_OF_ASC_NODE = 95.0819
ARG_OF_PERICENTER = 165.7125
MEAN_ANOMALY   = 194.4561

EPHEMERIS_TYPE = 0
CLASSIFICATION_TYPE = U
NORAD_CAT_ID   = 67261
ELEMENT_SET_NO = 999
REV_AT_EPOCH   = 310
BSTAR          = .79818049E-3
MEAN_MOTION_DOT = .17464E-3
MEAN_MOTION_DDOT = 0

CCSDS_OMM_VERS = 2.0
CREATION_DATE  = 
ORIGINATOR     = 

OBJECT_NAME    = 2025-313Q
OBJECT_ID      = 2025-313Q
CENTER_NAME    = EARTH
REF_FRAME      = TEME
TIME_SYSTEM    = UTC
MEAN_ELEMENT_THEORY = SGP/SGP4

EPOCH          = 2026-01-17T22:51:29.631456
MEAN_MOTION    = 15.20270820
ECCENTRICITY   = .00158976
INCLINATION    = 97.4117
RA_OF_ASC_NODE = 95.0597
ARG_OF_PERICENTER = 167.5305
MEAN_ANOMALY   = 192.6326

EPHEMERIS_TYPE = 0
CLASSIFICATION_TYPE = U
NORAD_CAT_ID   = 67262
ELEMENT_SET_NO = 999
REV_AT_EPOCH   = 310
BSTAR          = .54546775E-3
MEAN_MOTION_DOT = .11821E-3
MEAN_MOTION_DDOT = 0

CCSDS_OMM_VERS = 2.0
CREATION_DATE  = 
ORIGINATOR     = 

OBJECT_NAME    = DCS-1
OBJECT_ID      = 2025-313R
CENTER_NAME    = EARTH
REF_FRAME      = TEME
TIME_SYSTEM    = UTC
MEAN_ELEMENT_THEORY = SGP/SGP4

EPOCH          = 2026-01-17T22:52:01.547616
MEAN_MOTION    = 15.20212965
ECCENTRICITY   = .00158706
INCLINATION    = 97.4129
RA_OF_ASC_NODE = 95.0741
ARG_OF_PERICENTER = 166.4272
MEAN_ANOMALY   = 193.7393

EPHEMERIS_TYPE = 0
CLASSIFICATION_TYPE = U
NORAD_CAT_ID   = 67263
ELEMENT_SET_NO = 999
REV_AT_EPOCH   = 310
BSTAR          = .48666299E-3
MEAN_MOTION_DOT = .1052E-3
MEAN_MOTION_DDOT = 0

